[{"OBJECT_NAME":"GSAT-7","OBJECT_ID":"2013-044B","EPOCH":"2026-04-26T23:12:56.238048","MEAN_MOTION":1.00271798,"ECCENTRICITY":0.0004574,"INCLINATION":0.0904,"RA_OF_ASC_NODE":86.3968,"ARG_OF_PERICENTER":215.2682,"MEAN_ANOMALY":335.5097,"EPHEMERIS_TYPE":0,"CLASSIFICATION_TYPE":"U","NORAD_CAT_ID":39234,"ELEMENT_SET_NO":999,"REV_AT_EPOCH":4474,"BSTAR":0,"MEAN_MOTION_DOT":-8.8e-7,"MEAN_MOTION_DDOT":0},{"OBJECT_NAME":"AMOS-4","OBJECT_ID":"2013-045A","EPOCH":"2026-04-27T04:16:38.848224","MEAN_MOTION":1.00271633,"ECCENTRICITY":0.0003189,"INCLINATION":0.0139,"RA_OF_ASC_NODE":237.6307,"ARG_OF_PERICENTER":146.1776,"MEAN_ANOMALY":320.5269,"EPHEMERIS_TYPE":0,"CLASSIFICATION_TYPE":"U","NORAD_CAT_ID":39237,"ELEMENT_SET_NO":999,"REV_AT_EPOCH":4644,"BSTAR":0,"MEAN_MOTION_DOT":-3.0e-8,"MEAN_MOTION_DDOT":0},{"OBJECT_NAME":"ASTRA 2E","OBJECT_ID":"2013-056A","EPOCH":"2026-04-27T05:04:38.648352","MEAN_MOTION":1.00272795,"ECCENTRICITY":0.0002307,"INCLINATION":0.0622,"RA_OF_ASC_NODE":9.1023,"ARG_OF_PERICENTER":28.612,"MEAN_ANOMALY":282.1699,"EPHEMERIS_TYPE":0,"CLASSIFICATION_TYPE":"U","NORAD_CAT_ID":39285,"ELEMENT_SET_NO":999,"REV_AT_EPOCH":4590,"BSTAR":0,"MEAN_MOTION_DOT":1.4e-6,"MEAN_MOTION_DDOT":0},{"OBJECT_NAME":"FM-6","OBJECT_ID":"2013-058A","EPOCH":"2026-04-27T00:59:36.502080","MEAN_MOTION":1.00282134,"ECCENTRICITY":7.29e-5,"INCLINATION":0.0163,"RA_OF_ASC_NODE":249.7721,"ARG_OF_PERICENTER":84.5423,"MEAN_ANOMALY":139.3071,"EPHEMERIS_TYPE":0,"CLASSIFICATION_TYPE":"U","NORAD_CAT_ID":39360,"ELEMENT_SET_NO":999,"REV_AT_EPOCH":4556,"BSTAR":0,"MEAN_MOTION_DOT":-2.8e-7,"MEAN_MOTION_DDOT":0},{"OBJECT_NAME":"RADUGA-1M 3","OBJECT_ID":"2013-062A","EPOCH":"2026-04-27T01:16:38.658144","MEAN_MOTION":1.00271607,"ECCENTRICITY":0.0001072,"INCLINATION":5.8315,"RA_OF_ASC_NODE":72.9911,"ARG_OF_PERICENTER":259.1815,"MEAN_ANOMALY":297.029,"EPHEMERIS_TYPE":0,"CLASSIFICATION_TYPE":"U","NORAD_CAT_ID":39375,"ELEMENT_SET_NO":999,"REV_AT_EPOCH":4559,"BSTAR":0,"MEAN_MOTION_DOT":1.47e-6,"MEAN_MOTION_DDOT":0},{"OBJECT_NAME":"SES-8","OBJECT_ID":"2013-071A","EPOCH":"2026-04-27T04:51:21.769920","MEAN_MOTION":1.0027186,"ECCENTRICITY":0.0002465,"INCLINATION":0.0209,"RA_OF_ASC_NODE":258.538,"ARG_OF_PERICENTER":155.5508,"MEAN_ANOMALY":328.9523,"EPHEMERIS_TYPE":0,"CLASSIFICATION_TYPE":"U","NORAD_CAT_ID":39460,"ELEMENT_SET_NO":999,"REV_AT_EPOCH":4391,"BSTAR":0,"MEAN_MOTION_DOT":-2.8e-6,"MEAN_MOTION_DDOT":0},{"OBJECT_NAME":"INMARSAT 5-F1","OBJECT_ID":"2013-073A","EPOCH":"2026-04-27T01:59:21.598368","MEAN_MOTION":1.00269994,"ECCENTRICITY":6.09e-5,"INCLINATION":0.0106,"RA_OF_ASC_NODE":231.4346,"ARG_OF_PERICENTER":321.581,"MEAN_ANOMALY":114.4829,"EPHEMERIS_TYPE":0,"CLASSIFICATION_TYPE":"U","NORAD_CAT_ID":39476,"ELEMENT_SET_NO":999,"REV_AT_EPOCH":4506,"BSTAR":0,"MEAN_MOTION_DOT":0,"MEAN_MOTION_DDOT":0},{"OBJECT_NAME":"TKSAT-1 (TUPAC KATARI)","OBJECT_ID":"2013-075A","EPOCH":"2026-04-27T04:51:38.611008","MEAN_MOTION":1.00272756,"ECCENTRICITY":0.0002931,"INCLINATION":0.0275,"RA_OF_ASC_NODE":67.6167,"ARG_OF_PERICENTER":309.2613,"MEAN_ANOMALY":184.0318,"EPHEMERIS_TYPE":0,"CLASSIFICATION_TYPE":"U","NORAD_CAT_ID":39481,"ELEMENT_SET_NO":999,"REV_AT_EPOCH":4509,"BSTAR":0,"MEAN_MOTION_DOT":-2.05e-6,"MEAN_MOTION_DDOT":0},{"OBJECT_NAME":"EXPRESS-AM5","OBJECT_ID":"2013-077A","EPOCH":"2026-04-25T22:49:55.748352","MEAN_MOTION":1.00274513,"ECCENTRICITY":0.0001661,"INCLINATION":0.0174,"RA_OF_ASC_NODE":248.0895,"ARG_OF_PERICENTER":63.6367,"MEAN_ANOMALY":24.7534,"EPHEMERIS_TYPE":0,"CLASSIFICATION_TYPE":"U","NORAD_CAT_ID":39487,"ELEMENT_SET_NO":999,"REV_AT_EPOCH":4583,"BSTAR":0,"MEAN_MOTION_DOT":-2.93e-6,"MEAN_MOTION_DDOT":0},{"OBJECT_NAME":"GSAT-14","OBJECT_ID":"2014-001A","EPOCH":"2026-04-27T01:07:21.529344","MEAN_MOTION":1.00269843,"ECCENTRICITY":0.0002065,"INCLINATION":0.0229,"RA_OF_ASC_NODE":100.6184,"ARG_OF_PERICENTER":233.5005,"MEAN_ANOMALY":331.753,"EPHEMERIS_TYPE":0,"CLASSIFICATION_TYPE":"U","NORAD_CAT_ID":39498,"ELEMENT_SET_NO":999,"REV_AT_EPOCH":4486,"BSTAR":0,"MEAN_MOTION_DOT":0,"MEAN_MOTION_DDOT":0},{"OBJECT_NAME":"THAICOM 6","OBJECT_ID":"2014-002A","EPOCH":"2026-04-27T01:02:21.532992","MEAN_MOTION":1.00271651,"ECCENTRICITY":0.0004061,"INCLINATION":0.0751,"RA_OF_ASC_NODE":99.7649,"ARG_OF_PERICENTER":345.6588,"MEAN_ANOMALY":223.7175,"EPHEMERIS_TYPE":0,"CLASSIFICATION_TYPE":"U","NORAD_CAT_ID":39500,"ELEMENT_SET_NO":999,"REV_AT_EPOCH":4494,"BSTAR":0,"MEAN_MOTION_DOT":-1.32e-6,"MEAN_MOTION_DDOT":0},{"OBJECT_NAME":"TDRS 12","OBJECT_ID":"2014-004A","EPOCH":"2026-04-27T01:21:04.444416","MEAN_MOTION":1.00269487,"ECCENTRICITY":0.0001887,"INCLINATION":3.9289,"RA_OF_ASC_NODE":18.2327,"ARG_OF_PERICENTER":246.6785,"MEAN_ANOMALY":289.4992,"EPHEMERIS_TYPE":0,"CLASSIFICATION_TYPE":"U","NORAD_CAT_ID":39504,"ELEMENT_SET_NO":999,"REV_AT_EPOCH":4376,"BSTAR":0,"MEAN_MOTION_DOT":-2.79e-6,"MEAN_MOTION_DDOT":0},{"OBJECT_NAME":"ABS-2","OBJECT_ID":"2014-006A","EPOCH":"2026-04-27T01:07:21.529344","MEAN_MOTION":1.00269748,"ECCENTRICITY":0.0003727,"INCLINATION":0.0246,"RA_OF_ASC_NODE":99.8131,"ARG_OF_PERICENTER":301.4582,"MEAN_ANOMALY":265.5323,"EPHEMERIS_TYPE":0,"CLASSIFICATION_TYPE":"U","NORAD_CAT_ID":39508,"ELEMENT_SET_NO":999,"REV_AT_EPOCH":4476,"BSTAR":0,"MEAN_MOTION_DOT":0,"MEAN_MOTION_DDOT":0},{"OBJECT_NAME":"ATHENA-FIDUS","OBJECT_ID":"2014-006B","EPOCH":"2026-04-27T04:56:38.684256","MEAN_MOTION":1.00269864,"ECCENTRICITY":0.0001574,"INCLINATION":0.0146,"RA_OF_ASC_NODE":127.252,"ARG_OF_PERICENTER":278.7975,"MEAN_ANOMALY":281.105,"EPHEMERIS_TYPE":0,"CLASSIFICATION_TYPE":"U","NORAD_CAT_ID":39509,"ELEMENT_SET_NO":999,"REV_AT_EPOCH":4457,"BSTAR":0,"MEAN_MOTION_DOT":0,"MEAN_MOTION_DDOT":0},{"OBJECT_NAME":"TURKSAT 4A","OBJECT_ID":"2014-007A","EPOCH":"2026-04-27T04:48:38.757312","MEAN_MOTION":1.0027071,"ECCENTRICITY":0.0003346,"INCLINATION":0.0442,"RA_OF_ASC_NODE":294.5934,"ARG_OF_PERICENTER":29.512,"MEAN_ANOMALY":5.2375,"EPHEMERIS_TYPE":0,"CLASSIFICATION_TYPE":"U","NORAD_CAT_ID":39522,"ELEMENT_SET_NO":999,"REV_AT_EPOCH":4445,"BSTAR":0,"MEAN_MOTION_DOT":1.36e-6,"MEAN_MOTION_DDOT":0},{"OBJECT_NAME":"EXPRESS-AT1","OBJECT_ID":"2014-010A","EPOCH":"2026-04-27T01:49:16.738752","MEAN_MOTION":1.0028901,"ECCENTRICITY":0.0001844,"INCLINATION":0.1266,"RA_OF_ASC_NODE":84.1756,"ARG_OF_PERICENTER":17.2846,"MEAN_ANOMALY":198.5979,"EPHEMERIS_TYPE":0,"CLASSIFICATION_TYPE":"U","NORAD_CAT_ID":39612,"ELEMENT_SET_NO":999,"REV_AT_EPOCH":4430,"BSTAR":0,"MEAN_MOTION_DOT":5.3e-7,"MEAN_MOTION_DDOT":0},{"OBJECT_NAME":"EXPRESS-AT2","OBJECT_ID":"2014-010B","EPOCH":"2026-04-27T04:40:38.534880","MEAN_MOTION":1.00274045,"ECCENTRICITY":4.02e-5,"INCLINATION":0.0104,"RA_OF_ASC_NODE":221.4585,"ARG_OF_PERICENTER":134.1196,"MEAN_ANOMALY":345.7657,"EPHEMERIS_TYPE":0,"CLASSIFICATION_TYPE":"U","NORAD_CAT_ID":39613,"ELEMENT_SET_NO":999,"REV_AT_EPOCH":4398,"BSTAR":0,"MEAN_MOTION_DOT":6.8e-7,"MEAN_MOTION_DDOT":0}]
