GSAT-7                  
1 39234U 13044B   26116.96731757 -.00000088  00000+0  00000+0 0  9999
2 39234   0.0904  86.3968 0004574 215.2682 335.5097  1.00271798 44748
AMOS-4                  
1 39237U 13045A   26117.17822741 -.00000003  00000+0  00000+0 0  9998
2 39237   0.0139 237.6307 0003189 146.1776 320.5269  1.00271633 46448
ASTRA 2E                
1 39285U 13056A   26117.21155843  .00000140  00000+0  00000+0 0  9991
2 39285   0.0622   9.1023 0002307  28.6120 282.1699  1.00272795 45903
FM-6                    
1 39360U 13058A   26117.04139470 -.00000028  00000+0  00000+0 0  9992
2 39360   0.0163 249.7721 0000729  84.5423 139.3071  1.00282134 45564
RADUGA-1M 3             
1 39375U 13062A   26117.05322521  .00000147  00000+0  00000+0 0  9996
2 39375   5.8315  72.9911 0001072 259.1815 297.0290  1.00271607 45597
SES-8                   
1 39460U 13071A   26117.20233530 -.00000280  00000+0  00000+0 0  9998
2 39460   0.0209 258.5380 0002465 155.5508 328.9523  1.00271860 43916
INMARSAT 5-F1           
1 39476U 13073A   26117.08288887  .00000000  00000+0  00000+0 0  9997
2 39476   0.0106 231.4346 0000609 321.5810 114.4829  1.00269994 45060
TKSAT-1 (TUPAC KATARI)  
1 39481U 13075A   26117.20253022 -.00000205  00000+0  00000+0 0  9990
2 39481   0.0275  67.6167 0002931 309.2613 184.0318  1.00272756 45096
EXPRESS-AM5             
1 39487U 13077A   26115.95133968 -.00000293  00000+0  00000+0 0  9991
2 39487   0.0174 248.0895 0001661  63.6367  24.7534  1.00274513 45834
GSAT-14                 
1 39498U 14001A   26117.04677696  .00000000  00000+0  00000+0 0  9999
2 39498   0.0229 100.6184 0002065 233.5005 331.7530  1.00269843 44866
THAICOM 6               
1 39500U 14002A   26117.04330478 -.00000132  00000+0  00000+0 0  9995
2 39500   0.0751  99.7649 0004061 345.6588 223.7175  1.00271651 44947
TDRS 12                 
1 39504U 14004A   26117.05630144 -.00000279  00000+0  00000+0 0  9997
2 39504   3.9289  18.2327 0001887 246.6785 289.4992  1.00269487 43769
ABS-2                   
1 39508U 14006A   26117.04677696  .00000000  00000+0  00000+0 0  9996
2 39508   0.0246  99.8131 0003727 301.4582 265.5323  1.00269748 44766
ATHENA-FIDUS            
1 39509U 14006B   26117.20600329  .00000000  00000+0  00000+0 0  9994
2 39509   0.0146 127.2520 0001574 278.7975 281.1050  1.00269864 44573
TURKSAT 4A              
1 39522U 14007A   26117.20044858  .00000136  00000+0  00000+0 0  9999
2 39522   0.0442 294.5934 0003346  29.5120   5.2375  1.00270710 44451
EXPRESS-AT1             
1 39612U 14010A   26117.07588818  .00000053  00000+0  00000+0 0  9995
2 39612   0.1266  84.1756 0001844  17.2846 198.5979  1.00289010 44304
EXPRESS-AT2             
1 39613U 14010B   26117.19489045  .00000068  00000+0  00000+0 0  9997
2 39613   0.0104 221.4585 0000402 134.1196 345.7657  1.00274045 43981
